CYGNUS NG-23            
1 65616U 25208A   25355.56954477  .00009066  00000+0  16837-3 0  9996
2 65616  51.6324  98.7522 0003165 281.5679  78.4955 15.49703708   229
DRAGONFLY               
1 65729U 98067XH  25355.50347433  .00170588  00000+0  11144-2 0  9999
2 65729  51.6248  90.7906 0007642 331.3887  28.6692 15.74757439 14549
RSP-03                  
1 65732U 98067XL  25355.52451325  .00121759  00000+0  95100-3 0  9992
2 65732  51.6266  91.6927 0005725 306.8902  53.1571 15.70746693 14546
GHS-01                  
1 65733U 98067XM  25355.49998911  .00239293  00000+0  13106-2 0  9994
2 65733  51.6282  90.0237 0008816 335.2591  24.7986 15.78528465 14565
YOTSUBA-KULOVER         
1 65941U 98067XN  25355.55267506  .00063759  00000+0  75706-3 0  9998
2 65941  51.6297  95.6446 0002004 334.8286  25.2609 15.60566136 11231
BOTAN                   
1 65942U 98067XP  25355.53709946  .00102689  00000+0  10329-2 0  9991
2 65942  51.6287  94.7896 0003036 312.4061  47.6677 15.64619472 11249
E-KAGAKU-1              
1 65943U 98067XQ  25355.48874666  .00062201  00000+0  73910-3 0  9999
2 65943  51.6316  95.9734 0001198 280.9822  79.1036 15.60558335 11221
HRC MONOBLOCK CAMERA    
1 66052U 98067XR  25355.71589160  .00032497  00000+0  48538-3 0  9991
2 66052  51.6309  96.7319 0002303 227.1692 132.9105 15.54728821 10237
HTV-X1                  
1 66174U 25241A   25355.56954477  .00009066  00000+0  16837-3 0  9993
2 66174  51.6324  98.7522 0003165 281.5679  78.4955 15.49703708   511
SZ-21 MODULE            
1 66515U 25246C   25355.10297298  .00021377  00000+0  23274-3 0  9990
2 66515  41.4772 325.0132 0005392 304.7401  55.2931 15.62895195  5757
SHENZHOU-22             
1 66645U 25272A   25355.55290883  .00016128  00000+0  20086-3 0  9991
2 66645  41.4687 323.1886 0007788 108.2472 251.9215 15.59533817265199
